QIANFAN-17              
1 60395U 24140S   25230.22986257  .00000113  00000+0  15591-3 0  9995
2 60395  88.9845 311.4730 0015590 174.7128 185.4190 13.50964673 51554
QIANFAN-18              
1 60396U 24140T   25230.20939081  .00000104  00000+0  14177-3 0  9996
2 60396  88.9837 311.0178 0015511 158.2442 201.9371 13.50966479 51783
QIANFAN-19              
1 61552U 24185A   25229.90835478  .00000343  00000+0  17288-3 0  9991
2 61552  88.9783  91.3479 0006203 338.9253  21.1677 14.14126450 53157
QIANFAN-20              
1 61553U 24185B   25229.91540009  .00000400  00000+0  22442-3 0  9998
2 61553  88.9781  91.5532 0006668  16.4005 343.7393 14.08677772 53043
QIANFAN-21              
1 61554U 24185C   25229.90862906  .00000490  00000+0  21371-3 0  9990
2 61554  88.9697  90.6827 0012092  32.9981 327.1963 14.22378582 53368
QIANFAN-22              
1 61555U 24185D   25229.85757963  .00000154  00000+0  12210-3 0  9990
2 61555  88.9768  92.0704 0007122   9.5880 350.5425 13.86242620 52740
QIANFAN-23              
1 61556U 24185E   25229.90645123  .00000441  00000+0  21603-3 0  9996
2 61556  88.9775  91.2119 0007494 350.0244  10.0794 14.16099706 53219
QIANFAN-24              
1 61557U 24185F   25229.86943534  .00000459  00000+0  19516-3 0  9998
2 61557  88.9756  90.8125 0008569 333.3692  26.7059 14.23578583 53396
